CCSDS_OMM_VERS = 2.0
CREATION_DATE  = 
ORIGINATOR     = 

OBJECT_NAME    = SL-16 R/B
OBJECT_ID      = 1993-016B
CENTER_NAME    = EARTH
REF_FRAME      = TEME
TIME_SYSTEM    = UTC
MEAN_ELEMENT_THEORY = SGP/SGP4

EPOCH          = 2026-02-09T02:02:18.582720
MEAN_MOTION    = 14.15303599
ECCENTRICITY   = .00103255
INCLINATION    = 71.0066
RA_OF_ASC_NODE = 275.2634
ARG_OF_PERICENTER = 353.0260
MEAN_ANOMALY   = 7.0718

EPHEMERIS_TYPE = 0
CLASSIFICATION_TYPE = U
NORAD_CAT_ID   = 22566
ELEMENT_SET_NO = 999
REV_AT_EPOCH   = 69812
BSTAR          = -.6560757E-4
MEAN_MOTION_DOT = -.176E-5
MEAN_MOTION_DDOT = 0

CCSDS_OMM_VERS = 2.0
CREATION_DATE  = 
ORIGINATOR     = 

OBJECT_NAME    = COSMOS 2242
OBJECT_ID      = 1993-024A
CENTER_NAME    = EARTH
REF_FRAME      = TEME
TIME_SYSTEM    = UTC
MEAN_ELEMENT_THEORY = SGP/SGP4

EPOCH          = 2026-02-09T03:38:10.618656
MEAN_MOTION    = 14.96429420
ECCENTRICITY   = .00176198
INCLINATION    = 82.5191
RA_OF_ASC_NODE = 294.0123
ARG_OF_PERICENTER = 45.1177
MEAN_ANOMALY   = 315.1472

EPHEMERIS_TYPE = 0
CLASSIFICATION_TYPE = U
NORAD_CAT_ID   = 22626
ELEMENT_SET_NO = 999
REV_AT_EPOCH   = 77612
BSTAR          = .16147094E-3
MEAN_MOTION_DOT = .1862E-4
MEAN_MOTION_DDOT = 0

CCSDS_OMM_VERS = 2.0
CREATION_DATE  = 
ORIGINATOR     = 

OBJECT_NAME    = SL-16 R/B
OBJECT_ID      = 1993-059B
CENTER_NAME    = EARTH
REF_FRAME      = TEME
TIME_SYSTEM    = UTC
MEAN_ELEMENT_THEORY = SGP/SGP4

EPOCH          = 2026-02-09T05:51:53.926560
MEAN_MOTION    = 14.17227788
ECCENTRICITY   = .00194932
INCLINATION    = 70.9892
RA_OF_ASC_NODE = 71.1144
ARG_OF_PERICENTER = 255.6083
MEAN_ANOMALY   = 104.2877

EPHEMERIS_TYPE = 0
CLASSIFICATION_TYPE = U
NORAD_CAT_ID   = 22803
ELEMENT_SET_NO = 999
REV_AT_EPOCH   = 67550
BSTAR          = .7597959E-4
MEAN_MOTION_DOT = .106E-5
MEAN_MOTION_DDOT = 0

CCSDS_OMM_VERS = 2.0
CREATION_DATE  = 
ORIGINATOR     = 

OBJECT_NAME    = ARIANE 40 R/B
OBJECT_ID      = 1993-061H
CENTER_NAME    = EARTH
REF_FRAME      = TEME
TIME_SYSTEM    = UTC
MEAN_ELEMENT_THEORY = SGP/SGP4

EPOCH          = 2026-02-09T04:58:55.945344
MEAN_MOTION    = 14.32845768
ECCENTRICITY   = .00108
INCLINATION    = 98.4977
RA_OF_ASC_NODE = 109.6486
ARG_OF_PERICENTER = 14.7975
MEAN_ANOMALY   = 345.3523

EPHEMERIS_TYPE = 0
CLASSIFICATION_TYPE = U
NORAD_CAT_ID   = 22830
ELEMENT_SET_NO = 999
REV_AT_EPOCH   = 69002
BSTAR          = .10086112E-3
MEAN_MOTION_DOT = .232E-5
MEAN_MOTION_DDOT = 0

CCSDS_OMM_VERS = 2.0
CREATION_DATE  = 
ORIGINATOR     = 

OBJECT_NAME    = COSMOS 2278
OBJECT_ID      = 1994-023A
CENTER_NAME    = EARTH
REF_FRAME      = TEME
TIME_SYSTEM    = UTC
MEAN_ELEMENT_THEORY = SGP/SGP4

EPOCH          = 2026-02-09T05:41:47.916960
MEAN_MOTION    = 14.14363544
ECCENTRICITY   = .00066476
INCLINATION    = 71.0500
RA_OF_ASC_NODE = 234.6243
ARG_OF_PERICENTER = 67.4310
MEAN_ANOMALY   = 292.7515

EPHEMERIS_TYPE = 0
CLASSIFICATION_TYPE = U
NORAD_CAT_ID   = 23087
ELEMENT_SET_NO = 999
REV_AT_EPOCH   = 64078
BSTAR          = -.43862881E-4
MEAN_MOTION_DOT = -.131E-5
MEAN_MOTION_DDOT = 0

CCSDS_OMM_VERS = 2.0
CREATION_DATE  = 
ORIGINATOR     = 

OBJECT_NAME    = SL-16 R/B
OBJECT_ID      = 1994-023B
CENTER_NAME    = EARTH
REF_FRAME      = TEME
TIME_SYSTEM    = UTC
MEAN_ELEMENT_THEORY = SGP/SGP4

EPOCH          = 2026-02-09T07:07:18.897600
MEAN_MOTION    = 14.15003708
ECCENTRICITY   = .00044631
INCLINATION    = 70.9997
RA_OF_ASC_NODE = 130.5177
ARG_OF_PERICENTER = 312.1249
MEAN_ANOMALY   = 47.9494

EPHEMERIS_TYPE = 0
CLASSIFICATION_TYPE = U
NORAD_CAT_ID   = 23088
ELEMENT_SET_NO = 999
REV_AT_EPOCH   = 64207
BSTAR          = .60832722E-4
MEAN_MOTION_DOT = .7E-6
MEAN_MOTION_DDOT = 0

CCSDS_OMM_VERS = 2.0
CREATION_DATE  = 
ORIGINATOR     = 

OBJECT_NAME    = SL-16 R/B
OBJECT_ID      = 1994-074B
CENTER_NAME    = EARTH
REF_FRAME      = TEME
TIME_SYSTEM    = UTC
MEAN_ELEMENT_THEORY = SGP/SGP4

EPOCH          = 2026-02-09T02:47:50.781408
MEAN_MOTION    = 14.79373242
ECCENTRICITY   = .0005627
INCLINATION    = 97.7147
RA_OF_ASC_NODE = 72.0867
ARG_OF_PERICENTER = 325.3849
MEAN_ANOMALY   = 101.8523

EPHEMERIS_TYPE = 0
CLASSIFICATION_TYPE = U
NORAD_CAT_ID   = 23343
ELEMENT_SET_NO = 999
REV_AT_EPOCH   = 68302
BSTAR          = .77795139E-4
MEAN_MOTION_DOT = .53E-5
MEAN_MOTION_DDOT = 0

CCSDS_OMM_VERS = 2.0
CREATION_DATE  = 
ORIGINATOR     = 

OBJECT_NAME    = SL-16 R/B
OBJECT_ID      = 1994-077B
CENTER_NAME    = EARTH
REF_FRAME      = TEME
TIME_SYSTEM    = UTC
MEAN_ELEMENT_THEORY = SGP/SGP4

EPOCH          = 2026-02-09T06:56:48.039360
MEAN_MOTION    = 14.15557432
ECCENTRICITY   = .00042706
INCLINATION    = 70.9815
RA_OF_ASC_NODE = 52.2373
ARG_OF_PERICENTER = 235.2498
MEAN_ANOMALY   = 124.8223

EPHEMERIS_TYPE = 0
CLASSIFICATION_TYPE = U
NORAD_CAT_ID   = 23405
ELEMENT_SET_NO = 999
REV_AT_EPOCH   = 61221
BSTAR          = .1051141E-3
MEAN_MOTION_DOT = .158E-5
MEAN_MOTION_DDOT = 0

CCSDS_OMM_VERS = 2.0
CREATION_DATE  = 
ORIGINATOR     = 

OBJECT_NAME    = ARIANE 40+ R/B
OBJECT_ID      = 1995-021B
CENTER_NAME    = EARTH
REF_FRAME      = TEME
TIME_SYSTEM    = UTC
MEAN_ELEMENT_THEORY = SGP/SGP4

EPOCH          = 2026-02-09T04:23:47.964192
MEAN_MOTION    = 14.39751085
ECCENTRICITY   = .00061077
INCLINATION    = 98.4557
RA_OF_ASC_NODE = 112.0437
ARG_OF_PERICENTER = 219.6338
MEAN_ANOMALY   = 195.2120

EPHEMERIS_TYPE = 0
CLASSIFICATION_TYPE = U
NORAD_CAT_ID   = 23561
ELEMENT_SET_NO = 999
REV_AT_EPOCH   = 61514
BSTAR          = .11567043E-3
MEAN_MOTION_DOT = .319E-5
MEAN_MOTION_DDOT = 0

CCSDS_OMM_VERS = 2.0
CREATION_DATE  = 
ORIGINATOR     = 

OBJECT_NAME    = SL-16 R/B
OBJECT_ID      = 1995-058B
CENTER_NAME    = EARTH
REF_FRAME      = TEME
TIME_SYSTEM    = UTC
MEAN_ELEMENT_THEORY = SGP/SGP4

EPOCH          = 2026-02-09T00:17:48.375744
MEAN_MOTION    = 14.15492729
ECCENTRICITY   = .00122213
INCLINATION    = 71.0190
RA_OF_ASC_NODE = 240.4620
ARG_OF_PERICENTER = 173.1991
MEAN_ANOMALY   = 186.9301

EPHEMERIS_TYPE = 0
CLASSIFICATION_TYPE = U
NORAD_CAT_ID   = 23705
ELEMENT_SET_NO = 999
REV_AT_EPOCH   = 56379
BSTAR          = .17304454E-3
MEAN_MOTION_DOT = .291E-5
MEAN_MOTION_DDOT = 0

CCSDS_OMM_VERS = 2.0
CREATION_DATE  = 
ORIGINATOR     = 

OBJECT_NAME    = SL-16 R/B
OBJECT_ID      = 1996-051B
CENTER_NAME    = EARTH
REF_FRAME      = TEME
TIME_SYSTEM    = UTC
MEAN_ELEMENT_THEORY = SGP/SGP4

EPOCH          = 2026-02-08T23:42:05.707584
MEAN_MOTION    = 14.12407337
ECCENTRICITY   = .00175125
INCLINATION    = 70.7565
RA_OF_ASC_NODE = 235.9911
ARG_OF_PERICENTER = 188.2753
MEAN_ANOMALY   = 171.8080

EPHEMERIS_TYPE = 0
CLASSIFICATION_TYPE = U
NORAD_CAT_ID   = 24298
ELEMENT_SET_NO = 999
REV_AT_EPOCH   = 51759
BSTAR          = .68821039E-4
MEAN_MOTION_DOT = .78E-6
MEAN_MOTION_DDOT = 0

CCSDS_OMM_VERS = 2.0
CREATION_DATE  = 
ORIGINATOR     = 

OBJECT_NAME    = ORBVIEW 2 (SEASTAR)
OBJECT_ID      = 1997-037A
CENTER_NAME    = EARTH
REF_FRAME      = TEME
TIME_SYSTEM    = UTC
MEAN_ELEMENT_THEORY = SGP/SGP4

EPOCH          = 2026-02-09T01:10:26.445216
MEAN_MOTION    = 14.35472329
ECCENTRICITY   = .00029415
INCLINATION    = 98.8517
RA_OF_ASC_NODE = 203.6100
ARG_OF_PERICENTER = 130.2230
MEAN_ANOMALY   = 229.9212

EPHEMERIS_TYPE = 0
CLASSIFICATION_TYPE = U
NORAD_CAT_ID   = 24883
ELEMENT_SET_NO = 999
REV_AT_EPOCH   = 50436
BSTAR          = .14253236E-3
MEAN_MOTION_DOT = .363E-5
MEAN_MOTION_DDOT = 0

