SL-16 R/B               
1 22566U 93016B   26040.08493730 -.00000176  00000+0 -65608-4 0  9990
2 22566  71.0066 275.2634 0010325 353.0260   7.0718 14.15303599698121
COSMOS 2242             
1 22626U 93024A   26040.15151179  .00001862  00000+0  16147-3 0  9996
2 22626  82.5191 294.0123 0017619  45.1177 315.1472 14.96429420776123
SL-16 R/B               
1 22803U 93059B   26040.24437415  .00000106  00000+0  75980-4 0  9992
2 22803  70.9892  71.1144 0019493 255.6083 104.2877 14.17227788675504
ARIANE 40 R/B           
1 22830U 93061H   26040.20759196  .00000232  00000+0  10086-3 0  9999
2 22830  98.4977 109.6486 0010800  14.7975 345.3523 14.32845768690027
COSMOS 2278             
1 23087U 94023A   26040.23736015 -.00000131  00000+0 -43863-4 0  9991
2 23087  71.0500 234.6243 0006647  67.4310 292.7515 14.14363544640784
SL-16 R/B               
1 23088U 94023B   26040.29674650  .00000070  00000+0  60833-4 0  9990
2 23088  70.9997 130.5177 0004463 312.1249  47.9494 14.15003708642072
SL-16 R/B               
1 23343U 94074B   26040.11655997  .00000530  00000+0  77795-4 0  9990
2 23343  97.7147  72.0867 0005627 325.3849 101.8523 14.79373242683027
SL-16 R/B               
1 23405U 94077B   26040.28944490  .00000158  00000+0  10511-3 0  9997
2 23405  70.9815  52.2373 0004270 235.2498 124.8223 14.15557432612215
ARIANE 40+ R/B          
1 23561U 95021B   26040.18319403  .00000319  00000+0  11567-3 0  9990
2 23561  98.4557 112.0437 0006107 219.6338 195.2120 14.39751085615141
SL-16 R/B               
1 23705U 95058B   26040.01236546  .00000291  00000+0  17304-3 0  9992
2 23705  71.0190 240.4620 0012221 173.1991 186.9301 14.15492729563796
SL-16 R/B               
1 24298U 96051B   26039.98756606  .00000078  00000+0  68821-4 0  9996
2 24298  70.7565 235.9911 0017512 188.2753 171.8080 14.12407337517591
ORBVIEW 2 (SEASTAR)     
1 24883U 97037A   26040.04891719  .00000363  00000+0  14253-3 0  9991
2 24883  98.8517 203.6100 0002941 130.2230 229.9212 14.35472329504369
